[{"OBJECT_NAME":"GEESAT-4 09","OBJECT_ID":"2025-170J","EPOCH":"2026-03-09T21:53:22.612992","MEAN_MOTION":14.81018882,"ECCENTRICITY":0.00223815,"INCLINATION":49.9912,"RA_OF_ASC_NODE":302.3284,"ARG_OF_PERICENTER":11.5994,"MEAN_ANOMALY":348.5454,"EPHEMERIS_TYPE":0,"CLASSIFICATION_TYPE":"U","NORAD_CAT_ID":65127,"ELEMENT_SET_NO":999,"REV_AT_EPOCH":3128,"BSTAR":0.00033132097,"MEAN_MOTION_DOT":2.379e-5,"MEAN_MOTION_DDOT":0},{"OBJECT_NAME":"FENGYUN 1C DEB","OBJECT_ID":"1999-025AYA","EPOCH":"2026-03-09T23:00:33.421824","MEAN_MOTION":14.97109165,"ECCENTRICITY":0.00762057,"INCLINATION":99.4912,"RA_OF_ASC_NODE":70.9716,"ARG_OF_PERICENTER":234.2891,"MEAN_ANOMALY":125.1218,"EPHEMERIS_TYPE":0,"CLASSIFICATION_TYPE":"U","NORAD_CAT_ID":30888,"ELEMENT_SET_NO":999,"REV_AT_EPOCH":1220,"BSTAR":0.0012389306,"MEAN_MOTION_DOT":0.0001511,"MEAN_MOTION_DDOT":0}]
